{
    "links": {
        "self": "http://www.neowsapp.com/rest/v1/neo/3669884?api_key=iIulBulltgU6a56xZRHN4H3l9WmuAYTsLGpBGhQ2"
    },
    "id": "3669884",
    "neo_reference_id": "3669884",
    "name": "(2014 HP132)",
    "designation": "2014 HP132",
    "nasa_jpl_url": "http://ssd.jpl.nasa.gov/sbdb.cgi?sstr=3669884",
    "absolute_magnitude_h": 22.2,
    "estimated_diameter": {
        "kilometers": {
            "estimated_diameter_min": 0.096506147,
            "estimated_diameter_max": 0.2157943048
        },
        "meters": {
            "estimated_diameter_min": 96.5061469579,
            "estimated_diameter_max": 215.7943048444
        },
        "miles": {
            "estimated_diameter_min": 0.059966121,
            "estimated_diameter_max": 0.134088323
        },
        "feet": {
            "estimated_diameter_min": 316.6212271853,
            "estimated_diameter_max": 707.9865871058
        }
    },
    "is_potentially_hazardous_asteroid": false,
    "close_approach_data": [
        {
            "close_approach_date": "2014-05-01",
            "close_approach_date_full": "2014-May-01 23:02",
            "epoch_date_close_approach": 1398985320000,
            "relative_velocity": {
                "kilometers_per_second": "26.3829088009",
                "kilometers_per_hour": "94978.471683173",
                "miles_per_hour": "59015.9286966916"
            },
            "miss_distance": {
                "astronomical": "0.0462198848",
                "lunar": "17.9795351872",
                "kilometers": "6914396.317725376",
                "miles": "4296406.6448111488"
            },
            "orbiting_body": "Earth"
        }
    ],
    "orbital_data": {
        "orbit_id": "8",
        "orbit_determination_date": "2017-04-06 08:41:18",
        "first_observation_date": "2014-04-28",
        "last_observation_date": "2014-05-04",
        "data_arc_in_days": 6,
        "observations_used": 70,
        "orbit_uncertainty": "8",
        "minimum_orbit_intersection": ".044885",
        "jupiter_tisserand_invariant": "3.677",
        "epoch_osculation": "2456777.5",
        "eccentricity": ".5694626246580078",
        "semi_major_axis": "1.763472757240058",
        "inclination": "40.62119922306562",
        "ascending_node_longitude": "39.90718027089217",
        "orbital_period": "855.3651644840502",
        "perihelion_distance": ".7592409323892406",
        "perihelion_argument": "257.9042700309536",
        "aphelion_distance": "2.767704582090875",
        "perihelion_time": "2456830.196526368446",
        "mean_anomaly": "337.8214611953673",
        "mean_motion": ".4208728797333584",
        "equinox": "J2000",
        "orbit_class": {
            "orbit_class_type": "APO",
            "orbit_class_description": "Near-Earth asteroid orbits which cross the Earth’s orbit similar to that of 1862 Apollo",
            "orbit_class_range": "a (semi-major axis) > 1.0 AU; q (perihelion) < 1.017 AU"
        }
    },
    "is_sentry_object": false
}